[{"OBJECT_NAME":"ZHUHAI-1 03C","OBJECT_ID":"2019-060D","EPOCH":"2026-03-09T23:14:25.268928","MEAN_MOTION":15.71109528,"ECCENTRICITY":0.00111308,"INCLINATION":97.5515,"RA_OF_ASC_NODE":231.2826,"ARG_OF_PERICENTER":267.4607,"MEAN_ANOMALY":92.5381,"EPHEMERIS_TYPE":0,"CLASSIFICATION_TYPE":"U","NORAD_CAT_ID":44537,"ELEMENT_SET_NO":999,"REV_AT_EPOCH":36152,"BSTAR":0.00082474362,"MEAN_MOTION_DOT":0.00104963,"MEAN_MOTION_DDOT":0},{"OBJECT_NAME":"STARLINK-11234 [DTC]","OBJECT_ID":"2024-141C","EPOCH":"2026-03-09T07:03:31.870368","MEAN_MOTION":15.69710014,"ECCENTRICITY":0.00015893,"INCLINATION":53.1568,"RA_OF_ASC_NODE":88.0014,"ARG_OF_PERICENTER":123.2375,"MEAN_ANOMALY":236.8795,"EPHEMERIS_TYPE":0,"CLASSIFICATION_TYPE":"U","NORAD_CAT_ID":60400,"ELEMENT_SET_NO":999,"REV_AT_EPOCH":9163,"BSTAR":7.344283e-5,"MEAN_MOTION_DOT":8.317e-5,"MEAN_MOTION_DDOT":0}]
